OBJECT_NAME,OBJECT_ID,EPOCH,MEAN_MOTION,ECCENTRICITY,INCLINATION,RA_OF_ASC_NODE,ARG_OF_PERICENTER,MEAN_ANOMALY,EPHEMERIS_TYPE,CLASSIFICATION_TYPE,NORAD_CAT_ID,ELEMENT_SET_NO,REV_AT_EPOCH,BSTAR,MEAN_MOTION_DOT,MEAN_MOTION_DDOT
JILIN-1 GAOFEN 3A,2019-032C,2026-06-12T01:35:24.055296,15.32522237,.00065921,44.9765,25.1182,270.7661,89.2468,0,U,44312,999,38705,.35460884E-3,.11065E-3,0
WT 1B,2019-032G,2026-06-12T05:28:30.095040,15.27091352,.00096096,44.9725,88.0046,223.6113,136.4010,0,U,44316,999,38632,.40321595E-3,.10648E-3,0
PROX-1,2019-036A,2026-06-11T15:14:00.889728,14.90479846,.00053693,23.9924,151.3410,331.4108,28.6097,0,U,44339,999,37264,.11914242E-2,.12207E-3,0
NPSAT1,2019-036B,2026-06-11T13:38:16.871712,14.74532298,.0007737,23.9993,254.3571,142.5746,217.5289,0,U,44340,999,37166,.63983E-3,.4601E-4,0
FORMOSAT 7-3,2019-036E,2026-06-10T20:08:27.134016,15.09759770,.00007483,23.9983,222.2335,162.6468,197.4061,0,U,44343,999,38228,.20705068E-3,.3776E-4,0
FORMOSAT 7-1,2019-036L,2026-06-11T10:42:12.449088,14.96480132,.0000999,23.9984,71.0959,106.0435,254.0176,0,U,44349,999,38379,.16902E-3,.2269E-4,0
FORMOSAT 7-4,2019-036M,2026-06-12T04:50:43.476576,14.96478445,.00014277,23.9972,128.1073,125.9789,234.0845,0,U,44350,999,38332,.19447147E-3,.2565E-4,0
FORMOSAT 7-2,2019-036N,2026-06-10T18:10:31.196064,14.96473915,.00010217,23.9969,192.1641,105.9152,254.1461,0,U,44351,999,38262,.15417489E-3,.2096E-4,0
FORMOSAT 7-6,2019-036Q,2026-06-12T05:22:37.067232,14.96490671,.00013347,23.9994,3.0891,49.0665,310.9951,0,U,44353,999,38107,.21528161E-3,.2808E-4,0
FORMOSAT 7-5,2019-036V,2026-06-12T01:37:51.998880,14.96496673,.00006946,23.9991,302.8946,95.1246,264.9334,0,U,44358,999,38158,.18840335E-3,.2495E-4,0
METEOR-M2 2,2019-038A,2026-06-12T06:10:21.506304,14.24364813,.00022172,98.9141,150.4696,55.9175,304.2213,0,U,44387,999,36059,.66716885E-4,.108E-5,0
COSMOS 2535,2019-039A,2026-06-12T05:54:46.321344,14.91933415,.00071621,97.5760,191.5992,220.6865,139.3821,0,U,44421,999,37590,.99913698E-4,.958E-5,0
GLOBAL-4,2019-054E,2026-06-11T14:03:09.019584,15.63869122,.0006454,45.0063,268.7103,304.2226,55.8059,0,U,44499,999,37948,.51261E-3,.49298E-3,0
ZY-1 02D,2019-059A,2026-06-12T06:13:59.916864,14.35457717,.00023269,98.3193,224.9188,114.0626,246.0804,0,U,44528,999,35363,-.4506967E-5,-.55E-6,0
TAURUS-1 (JINNIUZUO 1),2019-059C,2026-06-12T06:44:24.435168,14.72045524,.0007651,98.6406,327.8047,333.7754,26.3063,0,U,44530,999,35792,.902718E-3,.5622E-4,0
ZHUHAI-1 03B,2019-060C,2026-06-12T06:56:45.501792,15.53822537,.00077741,97.5517,320.7918,338.0231,22.0688,0,U,44536,999,37556,.49981846E-3,.32122E-3,0
ZHUHAI-1 03D,2019-060E,2026-06-12T07:35:13.345152,15.49479482,.00067615,97.5381,312.9839,321.1727,38.9037,0,U,44538,999,37532,.57886232E-3,.31865E-3,0
ZHUHAI-1 03E,2019-060F,2026-06-12T05:50:40.403616,15.40910084,.00063388,97.5599,313.0203,49.6927,310.4872,0,U,44539,999,37500,.44987579E-3,.1844E-3,0
ATLAS 5 CENTAUR DEB,2018-079BG,2026-06-11T15:07:19.210080,1.77426584,.47222204,13.6170,39.7318,298.3338,22.1971,0,U,44694,999,4646,0,-.61E-6,0
GAOFEN-7,2019-072A,2026-06-12T06:23:44.615904,15.21565283,.00177884,97.2435,224.9181,57.0011,303.2932,0,U,44703,999,36689,.1871048E-3,.4168E-4,0
JILIN-1 GAOFEN 2A,2019-075A,2026-06-12T06:13:36.354720,15.39182384,.00075956,97.4971,246.9344,101.8285,258.3813,0,U,44777,999,36412,.36335925E-3,.14051E-3,0
NINGXIA-1 1,2019-076A,2026-06-12T06:21:17.843040,14.02037642,.00103582,45.0037,201.8497,139.2900,220.8710,0,U,44779,999,33716,.29277117E-4,-.85E-6,0
NINGXIA-1 5,2019-076E,2026-06-12T06:40:40.835424,14.02085074,.00098622,45.0039,201.1326,128.1138,232.0587,0,U,44783,999,33708,-.44522296E-4,-.198E-5,0
KL-ALPHA A,2019-077A,2026-06-12T06:00:18.252000,13.56042481,.00130416,88.9257,223.1043,118.1287,242.1187,0,U,44785,999,32506,.8324251E-5,.18E-6,0
CARTOSAT-3,2019-081A,2026-06-12T05:13:18.740064,15.19247886,.00127113,97.4313,225.1640,164.4971,195.6655,0,U,44804,999,36271,.19826938E-3,.4118E-4,0
JILIN-1 GAOFEN 2B,2019-086A,2026-06-12T06:40:09.173280,15.20659014,.00132703,97.4888,235.2993,342.8226,17.2559,0,U,44836,999,35974,.29501967E-3,.6422E-4,0
TIANQIN 1 (CAS-6),2019-093A,2026-06-12T06:31:04.224288,14.95415416,.00127093,97.7813,247.1476,71.9605,288.2999,0,U,44879,999,35131,.17668189E-3,.1897E-4,0
ETRSS-1,2019-093B,2026-06-12T06:42:55.270368,14.95841074,.00126123,97.7824,247.6102,72.1569,288.1027,0,U,44880,999,35132,.2303962E-3,.2519E-4,0
TIANYAN 01,2019-093C,2026-06-12T06:22:23.042208,14.86509371,.00149615,97.7533,235.6173,101.3833,258.9064,0,U,44881,999,35068,.30201292E-4,.214E-5,0
TIANYAN 02,2019-093D,2026-06-12T06:23:57.333984,15.05171297,.0014429,97.7940,258.0093,45.1561,315.0835,0,U,44882,999,35187,.48873454E-3,.6921E-4,0
