{"_default": { "4": {"norad_id": "44387", "name": "METEOR M2-2", "tle1": "1 44387U 19038A   26163.25719336  .00000108  00000-0  66717-4 0  9991", "tle2": "2 44387  98.9141 150.4696 0002217  55.9175 304.2213 14.24364813360599", "object_type": "PAYLOAD", "criticality_score": 9.0, "last_updated": "2026-06-12T14:14:32.686762+00:00", "maneuver_count": 0, "owner": "N/A"}, "41": {"norad_id": "44339", "name": "PROX-1", "tle1": "1 44339U 19036A   26162.63473252  .00012207  00000-0  11914-2 0  9991", "tle2": "2 44339  23.9924 151.3410 0005369 331.4108  28.6097 14.90479846372648", "object_type": "PAYLOAD", "criticality_score": 9.0, "last_updated": "2026-06-12T14:14:32.686762+00:00", "maneuver_count": 0, "owner": "N/A"}, "102": {"norad_id": "44881", "name": "OBJECT C", "tle1": "1 44881U 19093C   26163.26554447  .00000214  00000-0  30201-4 0  9999", "tle2": "2 44881  97.7533 235.6173 0014961 101.3833 258.9064 14.86509371350688", "object_type": "PAYLOAD", "criticality_score": 9.0, "last_updated": "2026-06-12T14:14:32.686762+00:00", "maneuver_count": 0, "owner": "N/A"}, "131": {"norad_id": "44530", "name": "TAURUS-1", "tle1": "1 44530U 19059C   26163.28083837  .00005622  00000-0  90272-3 0  9995", "tle2": "2 44530  98.6406 327.8047 0007651 333.7754  26.3063 14.72045524357923", "object_type": "PAYLOAD", "criticality_score": 9.0, "last_updated": "2026-06-12T14:14:32.686762+00:00", "maneuver_count": 0, "owner": "N/A"}, "132": {"norad_id": "44350", "name": "FORMOSAT7-4/COSMIC2-4", "tle1": "1 44350U 19036M   26163.20189209  .00002565  00000-0  19447-3 0  9990", "tle2": "2 44350  23.9972 128.1073 0001428 125.9789 234.0845 14.96478445383325", "object_type": "PAYLOAD", "criticality_score": 9.0, "last_updated": "2026-06-12T14:14:32.686762+00:00", "maneuver_count": 0, "owner": "N/A"}, "168": {"norad_id": "44694", "name": "ATLAS 5 CENTAUR DEB", "tle1": "1 44694U 18079BG  26162.63008345 -.00000061  00000-0  00000-0 0  9996", "tle2": "2 44694  13.6170  39.7318 4722220 298.3338  22.1971  1.77426584 46469", "object_type": "DEBRIS", "criticality_score": 9.0, "last_updated": "2026-06-12T14:14:32.686762+00:00", "maneuver_count": 0, "owner": "N/A"}, "186": {"norad_id": "44804", "name": "CARTOSAT 3", "tle1": "1 44804U 19081A   26163.21757801  .00004118  00000-0  19827-3 0  9992", "tle2": "2 44804  97.4313 225.1640 0012711 164.4971 195.6655 15.19247886362710", "object_type": "PAYLOAD", "criticality_score": 9.0, "last_updated": "2026-06-12T14:14:32.686762+00:00", "maneuver_count": 0, "owner": "N/A"}, "237": {"norad_id": "44499", "name": "GLOBAL-4", "tle1": "1 44499U 19054E   26162.58552106  .00049298  00000-0  51261-3 0  9998", "tle2": "2 44499  45.0063 268.7103 0006454 304.2226  55.8059 15.63869122379481", "object_type": "PAYLOAD", "criticality_score": 9.0, "last_updated": "2026-06-12T14:14:32.686762+00:00", "maneuver_count": 0, "owner": "N/A"}, "240": {"norad_id": "44343", "name": "FORMOSAT7-3/COSMIC2-3", "tle1": "1 44343U 19036E   26161.83920294  .00003776  00000-0  20705-3 0  9990", "tle2": "2 44343  23.9983 222.2335 0000748 162.6468 197.4061 15.09759770382286", "object_type": "PAYLOAD", "criticality_score": 9.0, "last_updated": "2026-06-12T14:14:32.686762+00:00", "maneuver_count": 0, "owner": "N/A"}, "241": {"norad_id": "44349", "name": "FORMOSAT7-1/COSMIC2-1", "tle1": "1 44349U 19036L   26162.44597742  .00002269  00000-0  16902-3 0  9992", "tle2": "2 44349  23.9984  71.0959 0000999 106.0435 254.0176 14.96480132383791", "object_type": "PAYLOAD", "criticality_score": 9.0, "last_updated": "2026-06-12T14:14:32.686762+00:00", "maneuver_count": 0, "owner": "N/A"}, "242": {"norad_id": "44351", "name": "FORMOSAT7-2/COSMIC2-2", "tle1": "1 44351U 19036N   26161.75730551  .00002096  00000-0  15417-3 0  9993", "tle2": "2 44351  23.9969 192.1641 0001022 105.9152 254.1461 14.96473915382622", "object_type": "PAYLOAD", "criticality_score": 9.0, "last_updated": "2026-06-12T14:14:32.686762+00:00", "maneuver_count": 0, "owner": "N/A"}, "243": {"norad_id": "44353", "name": "FORMOSAT7-6/COSMIC2-6", "tle1": "1 44353U 19036Q   26163.22404013  .00002808  00000-0  21528-3 0  9991", "tle2": "2 44353  23.9994   3.0891 0001335  49.0665 310.9951 14.96490671381074", "object_type": "PAYLOAD", "criticality_score": 9.0, "last_updated": "2026-06-12T14:14:32.686762+00:00", "maneuver_count": 0, "owner": "N/A"}, "244": {"norad_id": "44358", "name": "FORMOSAT7-5/COSMIC2-5", "tle1": "1 44358U 19036V   26163.06796295  .00002495  00000-0  18840-3 0  9999", "tle2": "2 44358  23.9991 302.8946 0000695  95.1246 264.9334 14.96496673381589", "object_type": "PAYLOAD", "criticality_score": 9.0, "last_updated": "2026-06-12T14:14:32.686762+00:00", "maneuver_count": 0, "owner": "N/A"}, "270": {"norad_id": "44312", "name": "OBJECT C", "tle1": "1 44312U 19032C   26163.06625064  .00011065  00000-0  35461-3 0  9991", "tle2": "2 44312  44.9765  25.1182 0006592 270.7661  89.2468 15.32522237387053", "object_type": "PAYLOAD", "criticality_score": 9.0, "last_updated": "2026-06-12T14:14:32.686762+00:00", "maneuver_count": 0, "owner": "N/A"}, "322": {"norad_id": "44316", "name": "OBJECT G", "tle1": "1 44316U 19032G   26163.22812610  .00010648  00000-0  40322-3 0  9996", "tle2": "2 44316  44.9725  88.0046 0009610 223.6113 136.4010 15.27091352386323", "object_type": "PAYLOAD", "criticality_score": 9.0, "last_updated": "2026-06-12T14:14:32.686762+00:00", "maneuver_count": 0, "owner": "N/A"}, "341": {"norad_id": "44882", "name": "OBJECT D", "tle1": "1 44882U 19093D   26163.26663581  .00006921  00000-0  48873-3 0  9994", "tle2": "2 44882  97.7940 258.0093 0014429  45.1561 315.0835 15.05171297351870", "object_type": "PAYLOAD", "criticality_score": 9.0, "last_updated": "2026-06-12T14:14:32.686762+00:00", "maneuver_count": 0, "owner": "N/A"}, "410": {"norad_id": "44703", "name": "GAOFEN 7", "tle1": "1 44703U 19072A   26163.26648861  .00004168  00000-0  18710-3 0  9995", "tle2": "2 44703  97.2435 224.9181 0017788  57.0011 303.2932 15.21565283366894", "object_type": "PAYLOAD", "criticality_score": 9.0, "last_updated": "2026-06-12T14:14:32.686762+00:00", "maneuver_count": 0, "owner": "N/A"}, "412": {"norad_id": "44779", "name": "NINGXIA-1 1", "tle1": "1 44779U 19076A   26163.26478985 -.00000085  00000-0  29277-4 0  9996", "tle2": "2 44779  45.0037 201.8497 0010358 139.2900 220.8710 14.02037642337163", "object_type": "PAYLOAD", "criticality_score": 9.0, "last_updated": "2026-06-12T14:14:32.686762+00:00", "maneuver_count": 0, "owner": "N/A"}, "435": {"norad_id": "44785", "name": "KL-ALPHA A", "tle1": "1 44785U 19077A   26163.25021125  .00000018  00000-0  83243-5 0  9992", "tle2": "2 44785  88.9257 223.1043 0013042 118.1287 242.1187 13.56042481325067", "object_type": "PAYLOAD", "criticality_score": 9.0, "last_updated": "2026-06-12T14:14:32.686762+00:00", "maneuver_count": 0, "owner": "N/A"}, "485": {"norad_id": "44879", "name": "OBJECT A", "tle1": "1 44879U 19093A   26163.27157667  .00001897  00000-0  17668-3 0  9999", "tle2": "2 44879  97.7813 247.1476 0012709  71.9605 288.2999 14.95415416351317", "object_type": "PAYLOAD", "criticality_score": 9.0, "last_updated": "2026-06-12T14:14:32.686762+00:00", "maneuver_count": 0, "owner": "N/A"}, "488": {"norad_id": "44880", "name": "OBJECT B", "tle1": "1 44880U 19093B   26163.27980637  .00002519  00000-0  23040-3 0  9995", "tle2": "2 44880  97.7824 247.6102 0012612  72.1569 288.1027 14.95841074351322", "object_type": "PAYLOAD", "criticality_score": 9.0, "last_updated": "2026-06-12T14:14:32.686762+00:00", "maneuver_count": 0, "owner": "N/A"}, "500": {"norad_id": "44538", "name": "ZHUHAI-1 03D", "tle1": "1 44538U 19060E   26163.31612668  .00031865  00000-0  57886-3 0  9991", "tle2": "2 44538  97.5381 312.9839 0006761 321.1727  38.9037 15.49479482375320", "object_type": "PAYLOAD", "criticality_score": 9.0, "last_updated": "2026-06-12T14:14:32.686762+00:00", "maneuver_count": 0, "owner": "N/A"}, "504": {"norad_id": "44836", "name": "JILIN-01 GAOFEN 2B", "tle1": "1 44836U 19086A   26163.27788395  .00006422  00000-0  29502-3 0  9991", "tle2": "2 44836  97.4888 235.2993 0013270 342.8226  17.2559 15.20659014359744", "object_type": "PAYLOAD", "criticality_score": 9.0, "last_updated": "2026-06-12T14:14:32.686762+00:00", "maneuver_count": 0, "owner": "N/A"}, "505": {"norad_id": "44777", "name": "JILIN-01 GAOFEN 2A", "tle1": "1 44777U 19075A   26163.25944855  .00014051  00000-0  36336-3 0  9996", "tle2": "2 44777  97.4971 246.9344 0007596 101.8285 258.3813 15.39182384364122", "object_type": "PAYLOAD", "criticality_score": 9.0, "last_updated": "2026-06-12T14:14:32.686762+00:00", "maneuver_count": 0, "owner": "N/A"}, "511": {"norad_id": "44528", "name": "ZY-1 02D", "tle1": "1 44528U 19059A   26163.25972126 -.00000055  00000-0 -45070-5 0  9992", "tle2": "2 44528  98.3193 224.9188 0002327 114.0626 246.0804 14.35457717353634", "object_type": "PAYLOAD", "criticality_score": 9.0, "last_updated": "2026-06-12T14:14:32.686762+00:00", "maneuver_count": 0, "owner": "N/A"}, "528": {"norad_id": "44536", "name": "ZHUHAI-1 03B", "tle1": "1 44536U 19060C   26163.28941553  .00032122  00000-0  49982-3 0  9998", "tle2": "2 44536  97.5517 320.7918 0007774 338.0231  22.0688 15.53822537375566", "object_type": "PAYLOAD", "criticality_score": 9.0, "last_updated": "2026-06-12T14:14:32.686762+00:00", "maneuver_count": 0, "owner": "N/A"}, "570": {"norad_id": "44421", "name": "COSMOS 2535", "tle1": "1 44421U 19039A   26163.24636946  .00000958  00000-0  99914-4 0  9993", "tle2": "2 44421  97.5760 191.5992 0007162 220.6865 139.3821 14.91933415375903", "object_type": "PAYLOAD", "criticality_score": 9.0, "last_updated": "2026-06-12T14:14:32.686762+00:00", "maneuver_count": 0, "owner": "N/A"}, "624": {"norad_id": "44539", "name": "ZHUHAI-1 03E", "tle1": "1 44539U 19060F   26163.24352319  .00018440  00000-0  44988-3 0  9991", "tle2": "2 44539  97.5599 313.0203 0006339  49.6927 310.4872 15.40910084375003", "object_type": "PAYLOAD", "criticality_score": 9.0, "last_updated": "2026-06-12T14:14:32.686762+00:00", "maneuver_count": 0, "owner": "N/A"}, "630": {"norad_id": "44783", "name": "NINGXIA-1 5", "tle1": "1 44783U 19076E   26163.27825041 -.00000198  00000-0 -44522-4 0  9997", "tle2": "2 44783  45.0039 201.1326 0009862 128.1138 232.0587 14.02085074337082", "object_type": "PAYLOAD", "criticality_score": 9.0, "last_updated": "2026-06-12T14:14:32.686762+00:00", "maneuver_count": 0, "owner": "N/A"}, "648": {"norad_id": "44340", "name": "NPSAT1", "tle1": "1 44340U 19036B   26162.56825083  .00004601  00000-0  63983-3 0  9991", "tle2": "2 44340  23.9993 254.3571 0007737 142.5746 217.5289 14.74532298371664", "object_type": "PAYLOAD", "criticality_score": 9.0, "last_updated": "2026-06-12T14:14:32.686762+00:00", "maneuver_count": 0, "owner": "N/A"}}}